NORAD_CAT_ID,OBJECT_NAME,OBJECT_TYPE,EPOCH,MEAN_MOTION,ECCENTRICITY,INCLINATION,RA_OF_ASC_NODE,ARG_OF_PERICENTER,MEAN_ANOMALY,BSTAR,MEAN_MOTION_DOT,MEAN_MOTION_DDOT,TLE_LINE0,TLE_LINE1,TLE_LINE2,SEMIMAJOR_AXIS,PERIOD,APOGEE,PERIGEE,DECAYED
52478.0,STARLINK-3825,PAYLOAD,2022-12-08 13:02:42,15.0885358,0.0002409,53.217,348.4365,40.7799,319.3373,0.00079743,0.00012431,0.0,0 STARLINK-3825,1 52478U 22049AD  22342.54355212  .00012431  00000-0  79743-3 0  9997,2 52478  53.2170 348.4365 0002409  40.7799 319.3373 15.08853580 34278,6917.839,95.437,541.37,538.0369999999998,0.0
52478.0,STARLINK-3825,PAYLOAD,2022-12-08 17:48:52,15.08863744,0.0002361,53.2169,347.5446,41.1246,318.9923,0.0010568,0.00016582,0.0,0 STARLINK-3825,1 52478U 22049AD  22342.74226900  .00016582  00000-0  10568-2 0  9990,2 52478  53.2169 347.5446 0002361  41.1246 318.9923 15.08863744 33228,6917.808000000001,95.436,541.306,538.04,0.0
52478.0,STARLINK-3825,PAYLOAD,2022-12-09 11:18:06,15.0883421,0.0002123,53.2173,344.2731,25.0101,335.0994,-0.00057323,-9.398e-05,0.0,0 STARLINK-3825,1 52478U 22049AD  22343.47090397 -.00009398  00000-0 -57323-3 0  9990,2 52478  53.2173 344.2731 0002123  25.0101 335.0994 15.08834210 33337,6917.898,95.438,541.232,538.294,0.0
52478.0,STARLINK-3825,PAYLOAD,2022-12-10 06:22:45,15.08813063,0.000239,53.2179,340.7067,31.2008,328.9126,0.00020739,3.012e-05,0.0,0 STARLINK-3825,1 52478U 22049AD  22344.26580278  .00003012  00000-0  20739-3 0  9996,2 52478  53.2179 340.7067 0002390  31.2008 328.9126 15.08813063 33451,6917.9630000000025,95.439,541.481,538.174,0.0
52478.0,STARLINK-3825,PAYLOAD,2022-12-10 11:08:54,15.08821482,0.0002191,53.2175,339.8124,39.2866,320.8285,0.00058727,9.066e-05,0.0,0 STARLINK-3825,1 52478U 22049AD  22344.46452471  .00009066  00000-0  58727-3 0  9994,2 52478  53.2175 339.8124 0002191  39.2866 320.8285 15.08821482 34563,6917.937,95.439,541.318,538.286,0.0
52478.0,STARLINK-3825,PAYLOAD,2022-12-11 04:38:09,15.08850369,0.0002152,53.2179,336.5412,40.4032,319.7119,0.0011687999999999,0.00018368,0.0,0 STARLINK-3825,1 52478U 22049AD  22345.19316618  .00018368  00000-0  11688-2 0  9996,2 52478  53.2179 336.5412 0002152  40.4032 319.7119 15.08850369 33598,6917.849,95.437,541.202,538.225,0.0
52478.0,STARLINK-3825,PAYLOAD,2022-12-11 06:13:32,15.0885359,0.0002253,53.2179,336.2442,37.9482,322.1668,0.0012079,0.00018995,0.0,0 STARLINK-3825,1 52478U 22049AD  22345.25940581  .00018995  00000-0  12079-2 0  9996,2 52478  53.2179 336.2442 0002253  37.9482 322.1668 15.08853590 34687,6917.839,95.437,541.262,538.145,0.0
52478.0,STARLINK-3825,PAYLOAD,2022-12-12 04:28:56,15.08854413,0.0002644,53.2193,332.0847,29.0436,331.0703,0.00037039,5.614e-05,0.0,0 STARLINK-3825,1 52478U 22049AD  22346.18676135  .00005614  00000-0  37039-3 0  9998,2 52478  53.2193 332.0847 0002644  29.0436 331.0703 15.08854413 33741,6917.8359999999975,95.437,541.53,537.872,0.0
52478.0,STARLINK-3825,PAYLOAD,2022-12-12 09:15:05,15.08851772,0.0002258,53.2186,331.1893,37.5615,322.5535,0.00025318,3.745e-05,0.0,0 STARLINK-3825,1 52478U 22049AD  22346.38547963  .00003745  00000-0  25318-3 0  9996,2 52478  53.2186 331.1893 0002258  37.5615 322.5535 15.08851772 34854,6917.844,95.437,541.271,538.1469999999998,0.0
52478.0,STARLINK-3825,PAYLOAD,2022-12-13 05:55:06,15.0884414,0.0002344,53.2189,327.3234,36.1243,323.9908,1.7867e-05,-4e-08,0.0,0 STARLINK-3825,1 52478U 22049AD  22347.24659776 -.00000004  00000-0  17867-4 0  9995,2 52478  53.2189 327.3234 0002344  36.1243 323.9908 15.08844140 33906,6917.868,95.437,541.354,538.111,0.0
52478.0,STARLINK-3825,PAYLOAD,2022-12-13 07:30:29,15.08845032,0.0002343,53.2187,327.0264,37.3555,322.76,-1.0359e-05,-4.53e-06,0.0,0 STARLINK-3825,1 52478U 22049AD  22347.31283751 -.00000453  00000-0 -10359-4 0  9997,2 52478  53.2187 327.0264 0002343  37.3555 322.7600 15.08845032 34999,6917.865,95.437,541.351,538.109,0.0
52478.0,STARLINK-3825,PAYLOAD,2022-12-14 07:21:16,15.08841328,0.0002154,53.2185,322.5653,42.3525,317.7633,-1.6566e-05,-5.52e-06,0.0,0 STARLINK-3825,1 52478U 22049AD  22348.30643608 -.00000552  00000-0 -16566-4 0  9994,2 52478  53.2185 322.5653 0002154  42.3525 317.7633 15.08841328 34064,6917.876,95.437,541.231,538.251,0.0
52478.0,STARLINK-3825,PAYLOAD,2022-12-14 15:18:11,15.08841913,0.0002382,53.2185,321.0793,37.9727,322.1433,1.8285e-05,3e-08,0.0,0 STARLINK-3825,1 52478U 22049AD  22348.63763584  .00000003  00000-0  18285-4 0  9995,2 52478  53.2185 321.0793 0002382  37.9727 322.1433 15.08841913 35193,6917.875,95.437,541.387,538.092,0.0
52478.0,STARLINK-3825,PAYLOAD,2022-12-15 07:12:03,15.08832509,0.0002118,53.2184,318.1039,34.931,325.1821,-1.0878e-05,-4.61e-06,0.0,0 STARLINK-3825,1 52478U 22049AD  22349.30004458 -.00000461  00000-0 -10878-4 0  9998,2 52478  53.2184 318.1039 0002118  34.9310 325.1821 15.08832509 34211,6917.903,95.438,541.2330000000002,538.303,0.0
52478.0,STARLINK-3825,PAYLOAD,2022-12-15 19:55:08,15.08844774,0.0002233,53.2187,315.7272,38.7898,321.3255,0.00016268,2.302e-05,0.0,0 STARLINK-3825,1 52478U 22049AD  22349.82995390  .00002302  00000-0  16268-3 0  9991,2 52478  53.2187 315.7272 0002233  38.7898 321.3255 15.08844774 35371,6917.866,95.437,541.276,538.186,0.0
52478.0,STARLINK-3825,PAYLOAD,2022-12-15 23:05:54,15.08846353,0.0002321,53.2176,315.1325,39.7752,320.341,0.00020094,2.912e-05,0.0,0 STARLINK-3825,1 52478U 22049AD  22349.96243383  .00002912  00000-0  20094-3 0  9993,2 52478  53.2176 315.1325 0002321  39.7752 320.3410 15.08846353 34310,6917.861,95.437,541.332,538.12,0.0
52478.0,STARLINK-3825,PAYLOAD,2022-12-16 07:02:50,15.08842484,0.0002276,53.2178,313.6456,39.3851,320.7306,0.00014081,1.954e-05,0.0,0 STARLINK-3825,1 52478U 22049AD  22350.29363645  .00001954  00000-0  14081-3 0  9999,2 52478  53.2178 313.6456 0002276  39.3851 320.7306 15.08842484 35449,6917.873000000001,95.437,541.312,538.163,0.0
52478.0,STARLINK-3825,PAYLOAD,2022-12-16 21:21:18,15.08842616,0.0002303,53.2176,310.9699,39.1315,320.9844,0.0001184,1.597e-05,0.0,0 STARLINK-3825,1 52478U 22049AD  22350.88979743  .00001597  00000-0  11840-3 0  9999,2 52478  53.2176 310.9699 0002303  39.1315 320.9844 15.08842616 34456,6917.871999999999,95.437,541.331,538.144,0.0
52478.0,STARLINK-3825,PAYLOAD,2022-12-17 03:42:50,15.08849852,0.0002267,53.2174,309.7804,39.9609,320.155,0.00021814,3.186e-05,0.0,0 STARLINK-3825,1 52478U 22049AD  22351.15475335  .00003186  00000-0  21814-3 0  9996,2 52478  53.2174 309.7804 0002267  39.9609 320.1550 15.08849852 35570,6917.85,95.437,541.284,538.1469999999998,0.0
52478.0,STARLINK-3825,PAYLOAD,2022-12-17 16:25:56,15.08836325,0.0002133,53.2179,307.4017,36.1019,324.0116,5.6864e-05,6.17e-06,0.0,0 STARLINK-3825,1 52478U 22049AD  22351.68468122  .00000617  00000-0  56864-4 0  9990,2 52478  53.2179 307.4017 0002133  36.1019 324.0116 15.08836325 34573,6917.892,95.438,541.232,538.281,0.0
52478.0,STARLINK-3825,PAYLOAD,2022-12-17 21:12:05,15.08836734,0.0002159,53.2173,306.509,38.5857,321.5289,-2.5708e-05,-6.97e-06,0.0,0 STARLINK-3825,1 52478U 22049AD  22351.88340130 -.00000697  00000-0 -25708-4 0  9993,2 52478  53.2173 306.5090 0002159  38.5857 321.5289 15.08836734 35682,6917.89,95.438,541.249,538.262,0.0
52478.0,STARLINK-3825,PAYLOAD,2022-12-18 06:44:24,15.0884664,0.0002344,53.2184,304.7255,36.4351,323.6801,1.4268e-05,-6.1e-07,0.0,0 STARLINK-3825,1 52478U 22049AD  22352.28083720 -.00000061  00000-0  14268-4 0  9990,2 52478  53.2184 304.7255 0002344  36.4351 323.6801 15.08846640 35746,6917.86,95.437,541.347,538.104,0.0
52478.0,STARLINK-3825,PAYLOAD,2022-12-19 06:35:09,15.08873606,0.0002114,53.2181,300.2645,39.071,321.0434,-0.00011299,-2.088e-05,0.0,0 STARLINK-3825,1 52478U 22049AD  22353.27442057 -.00002088  00000-0 -11299-3 0  9994,2 52478  53.2181 300.2645 0002114  39.0710 321.0434 15.08873606 34813,6917.778,95.435,541.105,538.18,0.0
52478.0,STARLINK-3825,PAYLOAD,2022-12-19 20:53:40,15.08829449,0.0002028,53.2181,297.5884,46.9891,313.1271,6.9492e-05,8.18e-06,0.0,0 STARLINK-3825,1 52478U 22049AD  22353.87061027  .00000818  00000-0  69492-4 0  9990,2 52478  53.2181 297.5884 0002028  46.9891 313.1271 15.08829449 35983,6917.913000000001,95.438,541.181,538.375,0.0
52478.0,STARLINK-3825,PAYLOAD,2022-12-19 22:29:03,15.08831916,0.0002016,53.2173,297.2909,43.2833,316.8317,3.719e-05,3.04e-06,0.0,0 STARLINK-3825,1 52478U 22049AD  22353.93684750  .00000304  00000-0  37190-4 0  9991,2 52478  53.2173 297.2909 0002016  43.2833 316.8317 15.08831916 34917,6917.905,95.438,541.165,538.375,0.0
52478.0,STARLINK-3825,PAYLOAD,2022-12-20 12:47:31,15.08841543,0.0002045,53.2174,294.6146,40.4242,319.6901,0.00016206,2.292e-05,0.0,0 STARLINK-3825,1 52478U 22049AD  22354.53300542  .00002292  00000-0  16206-3 0  9994,2 52478  53.2174 294.6146 0002045  40.4242 319.6901 15.08841543 36084,6917.876,95.437,541.155,538.326,0.0
52478.0,STARLINK-3825,PAYLOAD,2022-12-21 01:30:37,15.08839427,0.0001986,53.2173,292.2367,45.1212,314.9941,0.00029052,4.338e-05,0.0,0 STARLINK-3825,1 52478U 22049AD  22355.06292831  .00004338  00000-0  29052-3 0  9990,2 52478  53.2173 292.2367 0001986  45.1212 314.9941 15.08839427 35083,6917.882,95.438,541.121,538.373,0.0
52478.0,STARLINK-3825,PAYLOAD,2022-12-21 12:38:19,15.08837669,0.0001975,53.2175,290.1542,55.2681,304.8496,0.00023054,3.383e-05,0.0,0 STARLINK-3825,1 52478U 22049AD  22355.52661009  .00003383  00000-0  23054-3 0  9993,2 52478  53.2175 290.1542 0001975  55.2681 304.8496 15.08837669 36234,6917.888000000001,95.438,541.119,538.386,0.0
52478.0,STARLINK-3825,PAYLOAD,2022-12-21 15:49:05,15.08827764,0.0001633,53.217,289.5619,63.2072,296.9087,-9.5394e-05,-1.805e-05,0.0,0 STARLINK-3825,1 52478U 22049AD  22355.65909182 -.00001805  00000-0 -95394-4 0  9990,2 52478  53.2170 289.5619 0001633  63.2072 296.9087 15.08827764 35174,6917.918000000002,95.438,540.9119999999998,538.653,0.0
